[{"OBJECT_NAME":"STARLINK-30708","OBJECT_ID":"2023-148K","EPOCH":"2026-03-09T04:09:35.369856","MEAN_MOTION":15.30191809,"ECCENTRICITY":0.00012271,"INCLINATION":53.1613,"RA_OF_ASC_NODE":26.656,"ARG_OF_PERICENTER":82.5112,"MEAN_ANOMALY":277.6028,"EPHEMERIS_TYPE":0,"CLASSIFICATION_TYPE":"U","NORAD_CAT_ID":57944,"ELEMENT_SET_NO":999,"REV_AT_EPOCH":13834,"BSTAR":-4.6253536e-5,"MEAN_MOTION_DOT":-1.728e-5,"MEAN_MOTION_DDOT":0},{"OBJECT_NAME":"OBJECT H","OBJECT_ID":"2024-205H","EPOCH":"2026-03-09T23:10:36.271776","MEAN_MOTION":15.29110994,"ECCENTRICITY":0.00105089,"INCLINATION":97.4168,"RA_OF_ASC_NODE":147.1265,"ARG_OF_PERICENTER":38.7838,"MEAN_ANOMALY":321.4154,"EPHEMERIS_TYPE":0,"CLASSIFICATION_TYPE":"U","NORAD_CAT_ID":61901,"ELEMENT_SET_NO":999,"REV_AT_EPOCH":7354,"BSTAR":0.00059497566,"MEAN_MOTION_DOT":0.00016783,"MEAN_MOTION_DDOT":0}]
